OBJECT_NAME,OBJECT_ID,EPOCH,MEAN_MOTION,ECCENTRICITY,INCLINATION,RA_OF_ASC_NODE,ARG_OF_PERICENTER,MEAN_ANOMALY,EPHEMERIS_TYPE,CLASSIFICATION_TYPE,NORAD_CAT_ID,ELEMENT_SET_NO,REV_AT_EPOCH,BSTAR,MEAN_MOTION_DOT,MEAN_MOTION_DDOT
SAUDISAT 1C (SO-50),2002-058C,2026-06-06T16:52:37.289568,14.83024338,.0075466,64.5504,161.4222,264.4088,94.8408,0,U,27607,999,26290,.15193E-3,.1144E-4,0
SAUDISAT 2,2004-025F,2026-06-06T17:24:48.658752,14.56677808,.0024086,98.5506,157.4372,331.5636,28.4246,0,U,28371,999,16422,.8201E-4,.318E-5,0
SAUDISAT 3,2007-012B,2026-06-06T13:58:32.931840,14.71419518,.0013272,98.1451,107.9763,260.6754,99.2952,0,U,31118,999,2618,.61665E-4,.331E-5,0
PISAT,2016-059B,2026-06-06T18:58:08.742144,14.68965750,.0027691,97.8178,158.6901,237.2056,122.6482,0,U,41784,999,51821,.1853E-3,.1044E-4,0
FLYING LAPTOP,2017-042G,2026-06-06T20:28:49.466784,15.01078856,.0019013,97.4652,313.7874,155.4398,204.7736,0,U,42831,999,48490,.36601E-3,.4642E-4,0
SALSAT,2020-068K,2026-06-06T17:52:38.013888,15.29647917,.000905,97.8851,160.1753,349.8452,10.2602,0,U,46495,999,31376,.35498E-3,.10129E-3,0
